[
    {
        "CCSDS_OMM_VERS": "3.0",
        "COMMENT": "GENERATED VIA SPACE-TRACK.ORG API",
        "CREATION_DATE": "2025-04-14T03:05:54",
        "ORIGINATOR": "18 SPCS",
        "OBJECT_NAME": "BEIDOU 3M17",
        "OBJECT_ID": "2018-093A",
        "CENTER_NAME": "EARTH",
        "REF_FRAME": "TEME",
        "TIME_SYSTEM": "UTC",
        "MEAN_ELEMENT_THEORY": "SGP4",
        "EPOCH": "2025-04-13T17:52:36.027552",
        "MEAN_MOTION": "1.86228556",
        "ECCENTRICITY": "0.00082510",
        "INCLINATION": "54.1859",
        "RA_OF_ASC_NODE": "196.8661",
        "ARG_OF_PERICENTER": "286.4412",
        "MEAN_ANOMALY": "73.5060",
        "EPHEMERIS_TYPE": "0",
        "CLASSIFICATION_TYPE": "U",
        "NORAD_CAT_ID": "43706",
        "ELEMENT_SET_NO": "999",
        "REV_AT_EPOCH": "4354",
        "BSTAR": "0.00000000000000",
        "MEAN_MOTION_DOT": "0.00000019",
        "MEAN_MOTION_DDOT": "0.0000000000000",
        "SEMIMAJOR_AXIS": "27906.433",
        "PERIOD": "773.243",
        "APOAPSIS": "21551.323",
        "PERIAPSIS": "21505.272",
        "OBJECT_TYPE": "PAYLOAD",
        "RCS_SIZE": "LARGE",
        "COUNTRY_CODE": "PRC",
        "LAUNCH_DATE": "2018-11-18",
        "SITE": "XSC",
        "DECAY_DATE": null,
        "FILE": "4701263",
        "GP_ID": "285538518",
        "TLE_LINE0": "0 BEIDOU 3M17",
        "TLE_LINE1": "1 43706U 18093A   25103.74486143  .00000019  00000-0  00000-0 0  9999",
        "TLE_LINE2": "2 43706  54.1859 196.8661 0008251 286.4412  73.5060  1.86228556 43544"
    }
]